{
  "type": "FeatureCollection",
  "features": [
    {
      "type": "Feature",
      "properties": {
        "norad_id": 35661,
        "name": "COSMOS 2251 DEB",
        "group": "cosmos-2251-debris",
        "lat": -7.154163605296462,
        "lon": 96.1744645749922,
        "alt_km": 666.0184413967045,
        "timestamp": "2025-12-03T10:52:57.852877+00:00",
        "meta_object_name": "COSMOS 2251 DEB",
        "meta_object_id": "1993-036APC",
        "meta_epoch": "2025-12-01T15:17:54.099744",
        "meta_mean_motion": 14.86228294,
        "meta_eccentricity": 0.00894294,
        "meta_inclination": 74.0123,
        "meta_ra_of_asc_node": 101.8533,
        "meta_arg_of_pericenter": 208.6797,
        "meta_mean_anomaly": 150.945,
        "meta_ephemeris_type": 0,
        "meta_classification_type": "U",
        "meta_norad_cat_id": 35661,
        "meta_element_set_no": 999,
        "meta_rev_at_epoch": 87703,
        "meta_bstar": 0.0012388204,
        "meta_mean_motion_dot": 0.00011691,
        "meta_mean_motion_ddot": 0,
        "tle_line1": "1 35661U 93036APC 25335.63743171  .00011691  00000+0  12388-2 0  9993",
        "tle_line2": "2 35661  74.0123 101.8533 0089429 208.6797 150.9450 14.86228294877037"
      },
      "geometry": {
        "type": "Point",
        "coordinates": [
          96.1744645749922,
          -7.154163605296462
        ]
      }
    },
    {
      "type": "Feature",
      "properties": {
        "norad_id": 35663,
        "name": "COSMOS 2251 DEB",
        "group": "cosmos-2251-debris",
        "lat": -34.178531914817164,
        "lon": -26.214881828708975,
        "alt_km": 676.4574469062454,
        "timestamp": "2025-12-03T10:52:57.852888+00:00",
        "meta_object_name": "COSMOS 2251 DEB",
        "meta_object_id": "1993-036APE",
        "meta_epoch": "2025-11-30T11:26:45.384288",
        "meta_mean_motion": 14.65332391,
        "meta_eccentricity": 0.00074535,
        "meta_inclination": 74.0171,
        "meta_ra_of_asc_node": 148.2949,
        "meta_arg_of_pericenter": 219.2944,
        "meta_mean_anomaly": 140.7685,
        "meta_ephemeris_type": 0,
        "meta_classification_type": "U",
        "meta_norad_cat_id": 35663,
        "meta_element_set_no": 999,
        "meta_rev_at_epoch": 73202,
        "meta_bstar": 0.0015821861,
        "meta_mean_motion_dot": 8.525e-05,
        "meta_mean_motion_ddot": 0,
        "tle_line1": "1 35663U 93036APE 25334.47691417  .00008525  00000+0  15822-2 0  9999",
        "tle_line2": "2 35663  74.0171 148.2949 0007453 219.2944 140.7685 14.65332391732024"
      },
      "geometry": {
        "type": "Point",
        "coordinates": [
          -26.214881828708975,
          -34.178531914817164
        ]
      }
    },
    {
      "type": "Feature",
      "properties": {
        "norad_id": 35667,
        "name": "COSMOS 2251 DEB",
        "group": "cosmos-2251-debris",
        "lat": 74.03445803257655,
        "lon": -110.05442621640881,
        "alt_km": 695.3154422266962,
        "timestamp": "2025-12-03T10:52:57.852899+00:00",
        "meta_object_name": "COSMOS 2251 DEB",
        "meta_object_id": "1993-036APJ",
        "meta_epoch": "2025-11-27T21:14:47.493024",
        "meta_mean_motion": 14.59803731,
        "meta_eccentricity": 0.0020703,
        "meta_inclination": 74.055,
        "meta_ra_of_asc_node": 168.4138,
        "meta_arg_of_pericenter": 231.0984,
        "meta_mean_anomaly": 128.8335,
        "meta_ephemeris_type": 0,
        "meta_classification_type": "U",
        "meta_norad_cat_id": 35667,
        "meta_element_set_no": 999,
        "meta_rev_at_epoch": 70586,
        "meta_bstar": 0.00091618,
        "meta_mean_motion_dot": 4.364e-05,
        "meta_mean_motion_ddot": 0,
        "tle_line1": "1 35667U 93036APJ 25331.88527191  .00004364  00000+0  91618-3 0  9997",
        "tle_line2": "2 35667  74.0550 168.4138 0020703 231.0984 128.8335 14.59803731705867"
      },
      "geometry": {
        "type": "Point",
        "coordinates": [
          -110.05442621640881,
          74.03445803257655
        ]
      }
    },
    {
      "type": "Feature",
      "properties": {
        "norad_id": 35668,
        "name": "COSMOS 2251 DEB",
        "group": "cosmos-2251-debris",
        "lat": 65.745245041422,
        "lon": -82.2428555020104,
        "alt_km": 669.0425728936489,
        "timestamp": "2025-12-03T10:52:57.852910+00:00",
        "meta_object_name": "COSMOS 2251 DEB",
        "meta_object_id": "1993-036APK",
        "meta_epoch": "2025-12-03T02:21:36.855936",
        "meta_mean_motion": 14.63936697,
        "meta_eccentricity": 0.0082949,
        "meta_inclination": 74.0461,
        "meta_ra_of_asc_node": 239.0259,
        "meta_arg_of_pericenter": 346.4107,
        "meta_mean_anomaly": 13.4826,
        "meta_ephemeris_type": 0,
        "meta_classification_type": "U",
        "meta_norad_cat_id": 35668,
        "meta_element_set_no": 999,
        "meta_rev_at_epoch": 87506,
        "meta_bstar": 0.00043416,
        "meta_mean_motion_dot": 2.356e-05,
        "meta_mean_motion_ddot": 0,
        "tle_line1": "1 35668U 93036APK 25337.09834324  .00002356  00000+0  43416-3 0  9998",
        "tle_line2": "2 35668  74.0461 239.0259 0082949 346.4107  13.4826 14.63936697875063"
      },
      "geometry": {
        "type": "Point",
        "coordinates": [
          -82.2428555020104,
          65.745245041422
        ]
      }
    },
    {
      "type": "Feature",
      "properties": {
        "norad_id": 35669,
        "name": "COSMOS 2251 DEB",
        "group": "cosmos-2251-debris",
        "lat": 20.270524061653877,
        "lon": -179.322128070144,
        "alt_km": 1051.4627925124032,
        "timestamp": "2025-12-03T10:52:57.852920+00:00",
        "meta_object_name": "COSMOS 2251 DEB",
        "meta_object_id": "1993-036APL",
        "meta_epoch": "2025-11-22T23:34:15.709728",
        "meta_mean_motion": 13.57109563,
        "meta_eccentricity": 0.03876416,
        "meta_inclination": 73.8603,
        "meta_ra_of_asc_node": 191.6143,
        "meta_arg_of_pericenter": 306.7499,
        "meta_mean_anomaly": 49.8593,
        "meta_ephemeris_type": 0,
        "meta_classification_type": "U",
        "meta_norad_cat_id": 35669,
        "meta_element_set_no": 999,
        "meta_rev_at_epoch": 60521,
        "meta_bstar": 0.00098529597,
        "meta_mean_motion_dot": 1.118e-05,
        "meta_mean_motion_ddot": 0,
        "tle_line1": "1 35669U 93036APL 25326.98212627  .00001118  00000+0  98530-3 0  9993",
        "tle_line2": "2 35669  73.8603 191.6143 0387641 306.7499  49.8593 13.57109563605212"
      },
      "geometry": {
        "type": "Point",
        "coordinates": [
          -179.322128070144,
          20.270524061653877
        ]
      }
    },
    {
      "type": "Feature",
      "properties": {
        "norad_id": 35670,
        "name": "COSMOS 2251 DEB",
        "group": "cosmos-2251-debris",
        "lat": 72.89280259143449,
        "lon": 153.1875433187734,
        "alt_km": 559.122965508288,
        "timestamp": "2025-12-03T10:52:57.852931+00:00",
        "meta_object_name": "COSMOS 2251 DEB",
        "meta_object_id": "1993-036APM",
        "meta_epoch": "2025-12-03T00:51:50.152032",
        "meta_mean_motion": 14.93482129,
        "meta_eccentricity": 0.0036933,
        "meta_inclination": 73.8945,
        "meta_ra_of_asc_node": 84.1864,
        "meta_arg_of_pericenter": 48.0359,
        "meta_mean_anomaly": 312.396,
        "meta_ephemeris_type": 0,
        "meta_classification_type": "U",
        "meta_norad_cat_id": 35670,
        "meta_element_set_no": 999,
        "meta_rev_at_epoch": 87582,
        "meta_bstar": 0.0019069,
        "meta_mean_motion_dot": 0.00020358,
        "meta_mean_motion_ddot": 0,
        "tle_line1": "1 35670U 93036APM 25337.03599713  .00020358  00000+0  19069-2 0  9993",
        "tle_line2": "2 35670  73.8945  84.1864 0036933  48.0359 312.3960 14.93482129875820"
      },
      "geometry": {
        "type": "Point",
        "coordinates": [
          153.1875433187734,
          72.89280259143449
        ]
      }
    },
    {
      "type": "Feature",
      "properties": {
        "norad_id": 35671,
        "name": "COSMOS 2251 DEB",
        "group": "cosmos-2251-debris",
        "lat": -55.1716993712348,
        "lon": -58.94720883577176,
        "alt_km": 713.2257235496054,
        "timestamp": "2025-12-03T10:52:57.852941+00:00",
        "meta_object_name": "COSMOS 2251 DEB",
        "meta_object_id": "1993-036APN",
        "meta_epoch": "2025-12-03T02:19:30.984960",
        "meta_mean_motion": 14.48319371,
        "meta_eccentricity": 0.0041549,
        "meta_inclination": 74.0174,
        "meta_ra_of_asc_node": 97.3946,
        "meta_arg_of_pericenter": 273.0899,
        "meta_mean_anomaly": 267.4122,
        "meta_ephemeris_type": 0,
        "meta_classification_type": "U",
        "meta_norad_cat_id": 35671,
        "meta_element_set_no": 999,
        "meta_rev_at_epoch": 86623,
        "meta_bstar": 0.00032103,
        "meta_mean_motion_dot": 1.185e-05,
        "meta_mean_motion_ddot": 0,
        "tle_line1": "1 35671U 93036APN 25337.09688640  .00001185  00000+0  32103-3 0  9990",
        "tle_line2": "2 35671  74.0174  97.3946 0041549 273.0899 267.4122 14.48319371866236"
      },
      "geometry": {
        "type": "Point",
        "coordinates": [
          -58.94720883577176,
          -55.1716993712348
        ]
      }
    }
  ]
}